{
    "links": {
        "self": "http://www.neowsapp.com/rest/v1/neo/3647008?api_key=iIulBulltgU6a56xZRHN4H3l9WmuAYTsLGpBGhQ2"
    },
    "id": "3647008",
    "neo_reference_id": "3647008",
    "name": "(2013 QJ48)",
    "designation": "2013 QJ48",
    "nasa_jpl_url": "http://ssd.jpl.nasa.gov/sbdb.cgi?sstr=3647008",
    "absolute_magnitude_h": 21.7,
    "estimated_diameter": {
        "kilometers": {
            "estimated_diameter_min": 0.1214940408,
            "estimated_diameter_max": 0.2716689341
        },
        "meters": {
            "estimated_diameter_min": 121.4940407996,
            "estimated_diameter_max": 271.6689340891
        },
        "miles": {
            "estimated_diameter_min": 0.0754928736,
            "estimated_diameter_max": 0.1688071972
        },
        "feet": {
            "estimated_diameter_min": 398.6025088171,
            "estimated_diameter_max": 891.3023057169
        }
    },
    "is_potentially_hazardous_asteroid": false,
    "close_approach_data": [
        {
            "close_approach_date": "2013-08-19",
            "close_approach_date_full": "2013-Aug-19 08:43",
            "epoch_date_close_approach": 1376901780000,
            "relative_velocity": {
                "kilometers_per_second": "3.3313911532",
                "kilometers_per_hour": "11993.0081515389",
                "miles_per_hour": "7451.9888706048"
            },
            "miss_distance": {
                "astronomical": "0.3009495295",
                "lunar": "117.0693669755",
                "kilometers": "45021408.590702165",
                "miles": "27975006.079993277"
            },
            "orbiting_body": "Earth"
        }
    ],
    "orbital_data": {
        "orbit_id": "10",
        "orbit_determination_date": "2017-04-06 08:44:59",
        "first_observation_date": "2013-08-29",
        "last_observation_date": "2013-10-26",
        "data_arc_in_days": 58,
        "observations_used": 32,
        "orbit_uncertainty": "6",
        "minimum_orbit_intersection": ".270862",
        "jupiter_tisserand_invariant": "3.423",
        "epoch_osculation": "2459000.5",
        "eccentricity": ".4526932966472255",
        "semi_major_axis": "2.327942050242826",
        "inclination": "5.064543731418711",
        "ascending_node_longitude": "99.92430884194836",
        "orbital_period": "1297.348561496499",
        "perihelion_distance": "1.2740982891147",
        "perihelion_argument": "225.4911702191534",
        "aphelion_distance": "3.381785811370951",
        "perihelion_time": "2459113.533854067861",
        "mean_anomaly": "328.63434494621",
        "mean_motion": ".2774890347006959",
        "equinox": "J2000",
        "orbit_class": {
            "orbit_class_type": "AMO",
            "orbit_class_description": "Near-Earth asteroid orbits similar to that of 1221 Amor",
            "orbit_class_range": "1.017 AU < q (perihelion) < 1.3 AU"
        }
    },
    "is_sentry_object": false
}